IRIDIUM 171             
1 43929U 19002H   24317.85002610  .00000833  00000+0  29048-3 0  9997
2 43929  86.4000 236.7093 0002073  74.5293 285.6132 14.34211321305635
IRIDIUM 170             
1 43930U 19002J   24317.90538322  .00002853  00000+0  44861-3 0  9993
2 43930  86.6121 236.4792 0002248  84.5531 275.5942 14.72245052313733
IRIDIUM 167             
1 43931U 19002K   24318.47160140  .00000769  00000+0  26759-3 0  9996
2 43931  86.3988 236.2251 0002380  73.3794 286.7663 14.34222688305726
IRIDIUM 181             
1 56726U 23068S   24318.48434665  .00000898  00000+0  25946-3 0  9996
2 56726  86.8584 297.2200 0002179  79.4804 280.6643 14.43602928 78676
IRIDIUM 177             
1 56727U 23068T   24318.28672009  .00003744  00000+0  48906-3 0  9995
2 56727  86.1981 244.5373 0002872  79.8040 280.3504 14.80242658 80434
IRIDIUM 174             
1 56728U 23068U   24317.87568305  .00004061  00000+0  53124-3 0  9994
2 56728  86.1986 244.8480 0002397  86.9035 273.2460 14.80199243 80373
IRIDIUM 178             
1 56729U 23068V   24318.41111624  .00003854  00000+0  50393-3 0  9998
2 56729  86.5734 269.1295 0003398  73.7441 286.4154 14.80213101 80455
IRIDIUM 179             
1 56730U 23068W   24318.40556006  .00003644  00000+0  47587-3 0  9994
2 56730  86.6756 275.1475 0003608  73.1837 286.9780 14.80249176 80457
